      2.10          N: GNSS NAV DATA                        RINEX VERSION / TYPE
fic2rin                                 07/18/2018 00:33:34 PGM / RUN BY / DATE
                                                            END OF HEADER
30 18  7 17 18  0  0.0 4.939083009958e-05-4.774847184308e-12 0.000000000000e+00
    7.100000000000e+01 1.287500000000e+01 5.177001357172e-09 8.552762784900e-01
    7.245689630508e-07 3.578361589462e-03 5.025416612625e-06 5.153707151413e+03
    2.376000000000e+05 3.725290298462e-09-4.383609666938e-01 1.322478055954e-07
    9.437651590128e-01 2.728750000000e+02-3.019912130936e+00-8.498568285196e-09
   -4.785913638228e-11 1.000000000000e+00 2.010000000000e+03 0.000000000000e+00
    2.400000000000e+00 0.000000000000e+00 3.725290298462e-09 7.100000000000e+01
    2.304060000000e+05 4.000000000000e+00
31 18  7 17 18  0  0.0 1.070839352906e-04-2.614797267597e-12 0.000000000000e+00
    4.700000000000e+01 4.718750000000e+00 4.711624829515e-09 6.457810391667e-01
    3.576278686523e-07 8.778151241131e-03 5.090609192848e-06 5.153693384171e+03
    2.376000000000e+05 2.030283212662e-07-4.584824832357e-01 3.725290298462e-08
    9.628115331707e-01 2.801562500000e+02-1.245960028151e-01-8.332847096529e-09
   -7.500312418118e-11 1.000000000000e+00 2.010000000000e+03 0.000000000000e+00
    2.400000000000e+00 0.000000000000e+00-1.350417733192e-08 4.700000000000e+01
    2.304060000000e+05 4.000000000000e+00
29 18  7 17 18  0  0.0 4.130750894547e-04-6.934897101019e-12 0.000000000000e+00
    4.200000000000e+01 5.840625000000e+01 4.128029091838e-09-1.840222887184e+00
    3.164634108543e-06 8.370828581974e-04 7.359310984612e-06 5.153667831421e+03
    2.376000000000e+05-4.656612873077e-08 1.666759741473e+00 0.000000000000e+00
    9.840629374170e-01 2.520937500000e+02 1.394029736511e+00-7.942473693053e-09
    3.621579424748e-10 1.000000000000e+00 2.010000000000e+03 0.000000000000e+00
    2.400000000000e+00 0.000000000000e+00-1.024454832077e-08 4.200000000000e+01
    2.304060000000e+05 4.000000000000e+00
27 18  7 17 18  0  0.0 3.603901714087e-04-2.387423592154e-12 0.000000000000e+00
    5.100000000000e+01 7.546875000000e+01 4.177316859157e-09-2.610357380274e+00
    3.712251782417e-06 5.998062202707e-03 8.478760719299e-06 5.153692174911e+03
    2.376000000000e+05-2.793967723846e-08 1.601707395211e+00-9.872019290924e-08
    9.774557512983e-01 2.266562500000e+02 4.517209153721e-01-7.923901490874e-09
    3.614436270064e-10 1.000000000000e+00 2.010000000000e+03 0.000000000000e+00
    2.400000000000e+00 0.000000000000e+00 1.862645149231e-09 5.100000000000e+01
    2.304060000000e+05 4.000000000000e+00
28 18  7 17 18  0  0.0 7.318803109229e-04 2.728484105319e-12 0.000000000000e+00
    5.200000000000e+01-2.062500000000e+00 3.859803633457e-09-1.702788673720e+00
    3.054738044739e-07 1.944753667340e-02 1.047551631927e-05 5.153685365677e+03
    2.376000000000e+05 1.266598701477e-07 6.450898323180e-01 4.470348358154e-07
    9.856250033062e-01 1.879375000000e+02-1.517705117664e+00-7.644604142733e-09
   -2.589393572922e-10 1.000000000000e+00 2.010000000000e+03 0.000000000000e+00
    2.400000000000e+00 0.000000000000e+00-1.117587089539e-08 5.200000000000e+01
    2.304060000000e+05 4.000000000000e+00
18 18  7 17 18  0  0.0 3.476953133941e-05 4.547473508865e-12 0.000000000000e+00
    1.060000000000e+02-2.581250000000e+01 5.293791936254e-09 1.245022038725e+00
   -1.551583409309e-06 1.481404074002e-02 3.887340426445e-06 5.153638486862e+03
    2.376000000000e+05-3.520399332047e-07 2.609987861796e+00-1.564621925354e-07
    9.504425417926e-01 3.032812500000e+02 1.323231349394e+00-8.803938147933e-09
   -2.035799084918e-11 1.000000000000e+00 2.010000000000e+03 0.000000000000e+00
    3.400000000000e+00 0.000000000000e+00-6.519258022308e-09 1.060000000000e+02
    2.304060000000e+05 4.000000000000e+00
 9 18  7 17 18  0  0.0 5.135205574334e-04-7.958078640513e-13 0.000000000000e+00
    6.400000000000e+01 3.834375000000e+01 4.634478758928e-09-2.348399695474e+00
    1.924112439156e-06 8.934241486713e-04 1.060403883457e-05 5.153584476471e+03
    2.376000000000e+05 9.499490261078e-08-1.548888280065e+00 1.117587089539e-08
    9.522847696602e-01 1.715937500000e+02 1.825250325871e+00-8.057835641198e-09
    2.692969315838e-10 1.000000000000e+00 2.010000000000e+03 0.000000000000e+00
    2.400000000000e+00 0.000000000000e+00 9.313225746155e-10 6.400000000000e+01
    2.304060000000e+05 4.000000000000e+00
20 18  7 17 18  0  0.0 5.125580355525e-04 6.821210263297e-13 0.000000000000e+00
    6.800000000000e+01-8.450000000000e+01 5.192359139743e-09 1.390227644607e+00
   -4.699453711510e-06 4.002979607321e-03 8.439645171165e-06 5.153674520493e+03
    2.376000000000e+05 2.607703208923e-08-2.693673784771e+00-4.097819328308e-08
    9.289364508233e-01 1.978437500000e+02 2.049992094491e+00-8.420350741407e-09
   -3.482287908412e-10 1.000000000000e+00 2.010000000000e+03 0.000000000000e+00
    2.400000000000e+00 0.000000000000e+00-8.381903171539e-09 6.800000000000e+01
    2.304060000000e+05 4.000000000000e+00
18 18  7 17 17 59 44.0 3.477139398456e-05 4.547473508865e-12 0.000000000000e+00
    2.300000000000e+01-2.581250000000e+01 5.293791936254e-09 1.242688204552e+00
   -1.551583409309e-06 1.481404004153e-02 3.887340426445e-06 5.153638483047e+03
    2.375840000000e+05-3.520399332047e-07 2.609988003699e+00-1.564621925354e-07
    9.504425432555e-01 3.032812500000e+02 1.323231460576e+00-8.803580990199e-09
   -2.071514858337e-11 1.000000000000e+00 2.010000000000e+03 0.000000000000e+00
    2.400000000000e+00 0.000000000000e+00-6.519258022308e-09 2.300000000000e+01
    2.352360000000e+05 4.000000000000e+00
32 18  7 17 17 59 44.0-4.730946384370e-04 8.071765478235e-12 0.000000000000e+00
    5.000000000000e+00 4.350000000000e+01 4.486615456971e-09-1.907426207249e+00
    2.330169081688e-06 2.263234695420e-03 9.682029485703e-06 5.153683584213e+03
    2.375840000000e+05-9.499490261078e-08-1.543673025389e+00-1.154839992523e-07
    9.566466135199e-01 1.942500000000e+02-2.523060403479e+00-7.926758752748e-09
    2.864405028253e-10 1.000000000000e+00 2.010000000000e+03 0.000000000000e+00
    2.400000000000e+00 0.000000000000e+00 4.656612873077e-10 5.000000000000e+00
    2.368560000000e+05 4.000000000000e+00
32 18  7 17 19 59 44.0-4.730364307761e-04 8.071765478235e-12 0.000000000000e+00
    6.000000000000e+00 3.084375000000e+01 4.569118893571e-09-8.564918478433e-01
    1.478940248489e-06 2.263661124744e-03 9.590759873390e-06 5.153686922073e+03
    2.447840000000e+05 8.009374141693e-08-1.543729812943e+00 9.313225746155e-09
    9.566476463401e-01 1.962187500000e+02-2.523821183786e+00-8.072479108300e-09
    1.567922453121e-10 1.000000000000e+00 2.010000000000e+03 0.000000000000e+00
    2.400000000000e+00 0.000000000000e+00 4.656612873077e-10 6.000000000000e+00
    2.376060000000e+05 4.000000000000e+00
18 18  7 17 19 59 44.0 3.480445593596e-05 4.547473508865e-12 0.000000000000e+00
    2.400000000000e+01-2.725000000000e+01 5.062710882229e-09 2.292822030315e+00
   -1.670792698860e-06 1.481389545370e-02 3.146007657051e-06 5.153640525818e+03
    2.447840000000e+05 1.490116119385e-07 2.609926308055e+00-2.160668373108e-07
    9.504447171518e-01 3.108750000000e+02 1.323304129569e+00-8.312846263414e-09
   -1.428630936784e-12 1.000000000000e+00 2.010000000000e+03 0.000000000000e+00
    2.400000000000e+00 0.000000000000e+00-6.519258022308e-09 2.400000000000e+01
    2.376060000000e+05 4.000000000000e+00
 1 18  7 17 20  0  0.0-6.677256897092e-05-3.865352482535e-12 0.000000000000e+00
    6.600000000000e+01-3.206250000000e+01 4.668408743677e-09 2.543189130744e+00
   -1.726672053337e-06 8.010199642740e-03 3.930181264877e-06 5.153665691376e+03
    2.448000000000e+05-8.940696716309e-08 2.658182175020e+00-1.583248376846e-07
    9.720715778602e-01 3.102812500000e+02 6.623379188157e-01-8.199627261674e-09
    3.214419607765e-11 1.000000000000e+00 2.010000000000e+03 0.000000000000e+00
    2.400000000000e+00 0.000000000000e+00 5.587935447693e-09 6.600000000000e+01
    2.376060000000e+05 4.000000000000e+00
 2 18  7 17 20  0  0.0 5.506165325642e-05-1.068656274583e-11 0.000000000000e+00
    9.100000000000e+01-1.575000000000e+01 5.125213485714e-09 2.866930512741e+00
   -8.195638656616e-07 1.793715148233e-02 3.159046173096e-06 5.153774187088e+03
    2.448000000000e+05 1.434236764908e-07 2.595996661041e+00-2.831220626831e-07
    9.511096456030e-01 3.084062500000e+02-1.844614116679e+00-8.308560370603e-09
    3.928735076157e-12 1.000000000000e+00 2.010000000000e+03 0.000000000000e+00
    2.400000000000e+00 0.000000000000e+00-2.048909664154e-08 9.100000000000e+01
    2.376060000000e+05 4.000000000000e+00
22 18  7 17 20  0  0.0-4.608249291778e-04-1.193711796077e-11 0.000000000000e+00
    5.200000000000e+01-7.068750000000e+01 5.286648781570e-09-2.276327838169e+00
   -3.695487976074e-06 7.276116171852e-03 9.231269359589e-06 5.153767524719e+03
    2.448000000000e+05 4.656612873077e-08-2.644033583297e+00 1.229345798492e-07
    9.256442897373e-01 1.790000000000e+02-1.506744768642e+00-8.296059849907e-09
   -2.114373786441e-10 1.000000000000e+00 2.010000000000e+03 0.000000000000e+00
    2.400000000000e+00 0.000000000000e+00-1.816079020500e-08 5.200000000000e+01
    2.376060000000e+05 4.000000000000e+00
14 18  7 17 20  0  0.0-9.763287380338e-05 0.000000000000e+00 0.000000000000e+00
    4.800000000000e+01 4.356250000000e+01 4.447685263944e-09-1.874963071989e+00
    2.222135663033e-06 1.004494843073e-02 9.305775165558e-06 5.153605438232e+03
    2.448000000000e+05 2.309679985046e-07-1.458681216888e+00-3.911554813385e-08
    9.605260104038e-01 2.023437500000e+02-1.945449695172e+00-7.869970673011e-09
    2.042942239602e-10 1.000000000000e+00 2.010000000000e+03 0.000000000000e+00
    2.400000000000e+00 0.000000000000e+00-9.778887033463e-09 4.800000000000e+01
    2.376060000000e+05 4.000000000000e+00
